SKYSAT-A                
1 39418U 13066C   26199.07553485  .00001492  00000+0  87414-4 0  9998
2 39418  97.3800 247.4884 0020728 203.0344 156.9960 15.13124135693152
SKYSAT-B                
1 40072U 14037D   26198.85478173  .00000585  00000+0  70239-4 0  9999
2 40072  98.3855 159.5727 0005780 164.7180 195.4211 14.88095356650526
SKYSAT-C1               
1 41601U 16040C   26199.08477345  .00004754  00000+0  13438-3 0  9999
2 41601  96.9547 229.1369 0000356 218.0335 142.0885 15.36776427562618
SKYSAT-C4               
1 41771U 16058B   26199.01607434  .00010029  00000+0  18369-3 0  9993
2 41771  96.9165 219.5148 0003507 113.6433 246.5188 15.49495091550241
SKYSAT-C5               
1 41772U 16058C   26199.08197859  .00004006  00000+0  12503-3 0  9998
2 41772  97.0451 238.3337 0002869 153.1495 206.9897 15.33742466548482
SKYSAT-C2               
1 41773U 16058D   26199.01058192  .00007110  00000+0  16473-3 0  9997
2 41773  97.0159 219.9577 0001026 338.8088  21.3118 15.42719384549808
SKYSAT-C3               
1 41774U 16058E   26199.06798079  .00014713  00000+0  23063-3 0  9998
2 41774  96.8992 228.7506 0002615 130.2906 229.8578 15.53790670550906
SKYSAT-C11              
1 42987U 17068A   26198.93692861  .00017166  00000+0  21849-3 0  9999
2 42987  97.4388 349.1483 0001289 155.4215 204.7103 15.59422768488035
SKYSAT-C10              
1 42988U 17068B   26199.19374319  .00005568  00000+0  16562-3 0  9993
2 42988  97.4547 336.3604 0001536 111.7285 248.4122 15.35151685487118
SKYSAT-C9               
1 42989U 17068C   26199.12935813  .00007158  00000+0  16840-3 0  9995
2 42989  97.4467 337.5307 0008387  35.2867 324.8933 15.42257273487522
SKYSAT-C8               
1 42990U 17068D   26199.31265628  .00005540  00000+0  15279-3 0  9996
2 42990  97.4565 336.4004 0001248 104.2082 255.9302 15.37527335487099
SKYSAT-C7               
1 42991U 17068E   26199.11198719  .00005762  00000+0  15904-3 0  9992
2 42991  97.4575 337.1885 0005470  11.3778 348.7589 15.37475335487121
SKYSAT-C6               
1 42992U 17068F   26198.86718076  .00005065  00000+0  15546-3 0  9996
2 42992  97.4612 336.7817 0005052  82.8828 277.2989 15.34196805487027
SKYSAT-C12              
1 43797U 18099AR  26199.03029964  .00010534  00000+0  19045-3 0  9991
2 43797  96.9254 221.0451 0005139  63.8595 296.3186 15.49847254426631
FLOCK 4Q-16             
1 58271U 23174R   26199.15801065  .00013804  00000+0  24379-3 0  9996
2 58271  97.3820 288.0120 0006692  68.7482 291.4483 15.50455796150377
FLOCK 4Q-11             
1 58273U 23174T   26199.19459552  .00013370  00000+0  23208-3 0  9990
2 58273  97.3853 288.6888 0006096  63.0787 297.1087 15.50958433150397
FLOCK 4Q-28             
1 58280U 23174AA  26199.23606838  .00018255  00000+0  25526-3 0  9996
2 58280  97.3882 291.4954 0004543  54.2556 305.9121 15.56879137150570
FLOCK 4Q-27             
1 58282U 23174AC  26199.17321160  .00020433  00000+0  28339-3 0  9999
2 58282  97.3808 290.8351 0003695  59.9824 300.1797 15.57080498150572
PELICAN-1               
1 58296U 23174AS  26197.83856303  .00006429  00000+0  50104-4 0  9992
2 58296  97.4017 300.0203 0005785 199.5806 160.5236 15.72084807150822
FLOCK 4Q-7              
1 58318U 23174BQ  26199.19060135  .00020918  00000+0  28558-3 0  9994
2 58318  97.3905 291.7786 0004312  31.7676 328.3839 15.57498684150571
FLOCK 4Q-2              
1 58320U 23174BS  26199.17949370  .00013319  00000+0  23156-3 0  9998
2 58320  97.3838 288.3850 0004495  42.0493 318.1103 15.50923421150405
FLOCK 4Q-9              
1 58322U 23174BU  26199.19518891  .00015707  00000+0  26760-3 0  9999
2 58322  97.3850 288.5154 0005322  40.7044 319.4605 15.51452030150390
FLOCK 4Q-4              
1 58327U 23174BZ  26199.14778672  .00013780  00000+0  24783-3 0  9996
2 58327  97.3824 287.5740 0005555  66.7133 293.4703 15.49947354150352
FLOCK 4Q-13             
1 58328U 23174CA  26199.19151254  .00012734  00000+0  20592-3 0  9995
2 58328  97.4000 290.9448 0005664  46.7995 313.3730 15.52964635150489
FLOCK 4BE-18            
1 60480U 24149N   26199.15758147  .00009370  00000+0  21615-3 0  9999
2 60480  97.3722 283.2312 0005194 135.8306 224.3357 15.42771381107087
FLOCK 4BE-7             
1 60481U 24149P   26199.19314204  .00015144  00000+0  36237-3 0  9998
2 60481  97.3749 282.5528 0004464 140.9540 219.2030 15.41545020107027
FLOCK 4BE-36            
1 60486U 24149U   26199.17730125  .00009635  00000+0  21613-3 0  9995
2 60486  97.3738 283.9959 0005026 144.5500 215.6083 15.43602509107132
FLOCK 4BE-25            
1 60487U 24149V   26199.16243593  .00007882  00000+0  20231-3 0  9990
2 60487  97.3790 282.5390 0003807 135.9568 224.1982 15.39594007107005
FLOCK 4BE-31            
1 60488U 24149W   26199.17798151  .00011298  00000+0  23955-3 0  9999
2 60488  97.3790 284.9496 0003875 143.4483 216.7031 15.45231114107167
FLOCK 4BE-20            
1 60489U 24149X   26199.14097298  .00007602  00000+0  19987-3 0  9995
2 60489  97.3685 281.3184 0005249 145.6426 214.5160 15.38862268106973
FLOCK 4BE-23            
1 60490U 24149Y   26199.13971738  .00007361  00000+0  19646-3 0  9990
2 60490  97.3771 281.7092 0004893 148.1864 211.9678 15.38412148106952
FLOCK 4BE-17            
1 60492U 24149AA  26199.14540861  .00008739  00000+0  21659-3 0  9999
2 60492  97.3761 282.7765 0004566 139.3551 220.8037 15.40625414107025
FLOCK 4BE-22            
1 60494U 24149AC  26199.16375267  .00009405  00000+0  22226-3 0  9991
2 60494  97.3726 283.0367 0004873 145.7284 214.4279 15.42043725107078
FLOCK 4BE-34            
1 60495U 24149AD  26199.18138506  .00009020  00000+0  21352-3 0  9999
2 60495  97.3777 283.8962 0005075 153.1118 207.0393 15.42006823107105
FLOCK 4BE-32            
1 60497U 24149AF  26199.19324338  .00010409  00000+0  23686-3 0  9997
2 60497  97.3712 283.4767 0005159 150.1202 210.0342 15.43150411107112
FLOCK 4BE-11            
1 60501U 24149AK  26199.17173051  .00010418  00000+0  23085-3 0  9998
2 60501  97.3690 283.7144 0005223 150.3075 209.8471 15.43941005107135
FLOCK 4BE-24            
1 60505U 24149AP  26199.21978323  .00011616  00000+0  25513-3 0  9991
2 60505  97.3705 284.0329 0005240 160.7672 199.3775 15.44175149107153
TANAGER-1               
1 60507U 24149AR  26199.19522321  .00000178  00000+0  57620-5 0  9990
2 60507  97.2314 293.3122 0001821 145.1446 214.9922 15.43943177107826
FLOCK 4BE-29            
1 60509U 24149AT  26199.14321410  .00025729  00000+0  53484-3 0  9994
2 60509  97.3803 285.5095 0003730 168.9385 191.1947 15.45631927107192
FLOCK 4BE-2             
1 60511U 24149AV  26197.80093516  .00043143  00000+0  61823-3 0  9997
2 60511  97.3829 286.0140 0005363 168.9366 191.2008 15.56038813107100
FLOCK 4BE-13            
1 60512U 24149AW  26199.16886059  .00007989  00000+0  18525-3 0  9990
2 60512  97.3712 283.9184 0005287 147.3105 212.8471 15.42665952107146
FLOCK 4BE-27            
1 60513U 24149AX  26199.16493253  .00004939  00000+0  14807-3 0  9992
2 60513  97.3817 281.0406 0004321 172.0596 188.0716 15.34948340106899
FLOCK 4BE-9             
1 60514U 24149AY  26199.18902998  .00012582  00000+0  30020-3 0  9994
2 60514  97.3784 283.7797 0003941 162.4982 197.6402 15.41680268107095
FLOCK 4BE-6             
1 60516U 24149BA  26199.17807867  .00008022  00000+0  20070-3 0  9992
2 60516  97.3782 283.0666 0004594 164.3162 195.8227 15.40367618107049
FLOCK 4BE-14            
1 60517U 24149BB  26199.13202246  .00009602  00000+0  22782-3 0  9996
2 60517  97.3687 283.1867 0005606 167.3280 192.8109 15.41913504107090
FLOCK 4BE-1             
1 60518U 24149BC  26199.18006033  .00010017  00000+0  22478-3 0  9992
2 60518  97.3771 284.6255 0005289 166.5273 193.6117 15.43576103107159
FLOCK 4BE-28            
1 60519U 24149BD  26199.14499509  .00026086  00000+0  52715-3 0  9993
2 60519  97.3739 285.4169 0005419 167.0879 193.0510 15.46448306107225
FLOCK 4BE-5             
1 60559U 24149CV  26199.13697720  .00009023  00000+0  22011-3 0  9999
2 60559  97.3835 283.4524 0004275 163.1816 196.9573 15.41098734107048
FLOCK 4BE-3             
1 60561U 24149CX  26199.16490569  .00010182  00000+0  23716-3 0  9998
2 60561  97.3687 283.3925 0005239 160.2670 199.8781 15.42455689107115
FLOCK 4BE-19            
1 60563U 24149CZ  26199.14811327  .00014551  00000+0  30246-3 0  9997
2 60563  97.3736 285.0755 0006069 166.2359 193.9057 15.45740625107205
FLOCK 4G-8              
1 62613U 25009E   26199.15036709  .00005105  00000+0  17690-3 0  9998
2 62613  97.3999 281.0354 0004342 182.0780 178.0444 15.30275313 83658
FLOCK 4G-13             
1 62621U 25009N   26199.19891081  .00051977  00000+0  94922-3 0  9994
2 62621  97.3942 283.1252 0006724 190.3295 169.7819 15.49221723 83798
FLOCK 4G-9              
1 62622U 25009P   26199.17644216  .00004846  00000+0  17722-3 0  9995
2 62622  97.3952 279.9065 0004373 193.4570 166.6554 15.28538733 83592
FLOCK 4G-7              
1 62624U 25009R   26199.13518171  .00005137  00000+0  18004-3 0  9991
2 62624  97.3936 280.2876 0002882 173.1390 186.9890 15.29908154 83631
FLOCK 4G-12             
1 62625U 25009S   26199.19604605  .00005931  00000+0  20803-3 0  9998
2 62625  97.4015 280.9004 0004481 178.5697 181.5557 15.29809854 83646
FLOCK 4G-11             
1 62629U 25009W   26199.18069461  .00005662  00000+0  19808-3 0  9990
2 62629  97.3916 280.4398 0002991 175.0874 185.0397 15.29917771 83653
PELICAN-2               
1 62631U 25009Y   26198.83185020 -.00000006  00000+0  18223-5 0  9994
2 62631  97.2039 289.3472 0002682 112.6931 247.4600 15.40635100 84275
FLOCK 4G-26             
1 62633U 25009AA  26199.19389695  .00006534  00000+0  22682-3 0  9993
2 62633  97.4010 281.0604 0003947 168.6574 191.4756 15.30112633 83654
FLOCK 4G-28             
1 62634U 25009AB  26199.14942317  .00004705  00000+0  13960-3 0  9992
2 62634  97.4022 283.8249 0002381 155.9084 204.2271 15.35310111 83830
FLOCK 4G-24             
1 62637U 25009AE  26199.20458917  .00005478  00000+0  18890-3 0  9995
2 62637  97.4017 281.3776 0003965 157.3072 202.8345 15.30401957 83679
